NORAD_CAT_ID,OBJECT_NAME,OBJECT_TYPE,EPOCH,MEAN_MOTION,ECCENTRICITY,INCLINATION,RA_OF_ASC_NODE,ARG_OF_PERICENTER,MEAN_ANOMALY,BSTAR,MEAN_MOTION_DOT,MEAN_MOTION_DDOT,TLE_LINE0,TLE_LINE1,TLE_LINE2,SEMIMAJOR_AXIS,PERIOD,APOGEE,PERIGEE,DECAYED
50178.0,STARLINK-3284,PAYLOAD,2022-03-08 14:00:01,15.30007781,0.0001522,53.2174,333.9844,42.1566,328.4044,-0.023993,-0.00656323,0.0,0 STARLINK-3284,1 50178U 21125Y   22067.58334491 -.00656323  00000-0 -23993-1 0  9990,2 50178  53.2174 333.9844 0001522  42.1566 328.4044 15.30007781  3665,6853.926,94.117,476.834,474.74800000000016,0.0
50178.0,STARLINK-3284,PAYLOAD,2022-03-08 22:00:00,15.29543927,0.0001688,53.2176,332.4381,37.9848,9.3239,-0.024519,-0.00660805,0.0,0 STARLINK-3284,1 50178U 21125Y   22067.91667824 -.00660805  00000-0 -24519-1 0  9991,2 50178  53.2176 332.4381 0001688  37.9848   9.3239 15.29543927  3672,6855.312,94.146,478.334,476.02,0.0
50178.0,STARLINK-3284,PAYLOAD,2022-03-09 14:00:01,15.28609586,0.0001663,53.2173,329.3449,40.8186,78.3082,-0.025161,-0.00658939,0.0,0 STARLINK-3284,1 50178U 21125Y   22068.58334491 -.00658939  00000-0 -25161-1 0  9995,2 50178  53.2173 329.3449 0001663  40.8186  78.3082 15.28609586  3686,6858.105,94.203,481.11,478.829,0.0
50178.0,STARLINK-3284,PAYLOAD,2022-03-09 16:00:00,15.28449934,0.0001706999999999,53.2169,328.9599,44.6627,173.3029,-0.022762,-0.00597388,0.0,0 STARLINK-3284,1 50178U 21125Y   22068.66667824 -.00597388  00000-0 -22762-1 0  9997,2 50178  53.2169 328.9599 0001707  44.6627 173.3029 15.28449934 15536,6858.581999999999,94.213,481.61800000000005,479.277,0.0
50178.0,STARLINK-3284,PAYLOAD,2022-03-09 22:00:01,15.28142209,0.0001884,53.2175,327.8018,39.3435,114.9141,-0.025473,-0.00657702,0.0,0 STARLINK-3284,1 50178U 21125Y   22068.91668981 -.00657702  00000-0 -25473-1 0  9999,2 50178  53.2175 327.8018 0001884  39.3435 114.9141 15.28142209  3652,6859.503000000002,94.232,482.66,480.076,0.0
50178.0,STARLINK-3284,PAYLOAD,2022-03-10 06:00:00,15.27554185,0.0001779,53.2162,326.2608,46.0055,142.761,-0.019254,-0.00492629,0.0,0 STARLINK-3284,1 50178U 21125Y   22069.25001157 -.00492629  00000-0 -19254-1 0  9998,2 50178  53.2162 326.2608 0001779  46.0055 142.7610 15.27554185 15621,6861.263000000001,94.268,484.349,481.908,0.0
50178.0,STARLINK-3284,PAYLOAD,2022-03-10 14:00:01,15.27081052,0.0001921,53.2166,324.7167,45.1742,177.5393,-0.018914,-0.00477941,0.0,0 STARLINK-3284,1 50178U 21125Y   22069.58334491 -.00477941  00000-0 -18914-1 0  9996,2 50178  53.2166 324.7167 0001921  45.1742 177.5393 15.27081052  3630,6862.681,94.298,485.864,483.227,0.0
50178.0,STARLINK-3284,PAYLOAD,2022-03-10 20:00:01,15.26860273,0.0001895,53.2176,323.5602,38.5737,119.1649,-0.026562,-0.00659304,0.0,0 STARLINK-3284,1 50178U 21125Y   22069.83334491 -.00659304  00000-0 -26562-1 0  9997,2 50178  53.2176 323.5602 0001895  38.5737 119.1649 15.26860273 15719,6863.342,94.311,486.508,483.906,0.0
50178.0,STARLINK-3284,PAYLOAD,2022-03-10 22:00:01,15.26741983,0.0001837,53.2175,323.1755,41.5521,214.5441,-0.026533,-0.00656424,0.0,0 STARLINK-3284,1 50178U 21125Y   22069.91668981 -.00656424  00000-0 -26533-1 0  9998,2 50178  53.2175 323.1755 0001837  41.5521 214.5441 15.26741983  3661,6863.696999999999,94.318,486.822,484.301,0.0
50178.0,STARLINK-3284,PAYLOAD,2022-03-11 14:00:01,15.2580838,0.0001466,53.2173,320.0954,51.3211,269.8018,-0.027271,-0.00655811,0.0,0 STARLINK-3284,1 50178U 21125Y   22070.58334491 -.00655811  00000-0 -27271-1 0  9998,2 50178  53.2173 320.0954 0001466  51.3211 269.8018 15.25808380  3633,6866.496,94.376,489.36800000000005,487.354,0.0
50178.0,STARLINK-3284,PAYLOAD,2022-03-11 22:00:00,15.25343907,0.0001609,53.2175,318.5591,43.6334,309.1915,-0.027794,-0.00658846,0.0,0 STARLINK-3284,1 50178U 21125Y   22070.91667824 -.00658846  00000-0 -27794-1 0  9995,2 50178  53.2175 318.5591 0001609  43.6334 309.1915 15.25343907 15875,6867.89,94.405,490.86,488.65,0.0
50178.0,STARLINK-3284,PAYLOAD,2022-03-12 14:00:01,15.24408989,0.0001484,53.2173,315.4854,46.5837,7.9685,-0.02848,-0.00656514,0.0,0 STARLINK-3284,1 50178U 21125Y   22071.58334491 -.00656514  00000-0 -28480-1 0  9993,2 50178  53.2173 315.4854 0001484  46.5837   7.9685 15.24408989  3653,6870.698,94.463,493.582,491.543,0.0
50178.0,STARLINK-3284,PAYLOAD,2022-03-12 22:00:00,15.23944621,0.0001847,53.2175,313.9527,36.4571,48.1149,-0.029035,-0.00659836,0.0,0 STARLINK-3284,1 50178U 21125Y   22071.91667824 -.00659836  00000-0 -29035-1 0  9996,2 50178  53.2175 313.9527 0001847  36.4571  48.1149 15.23944621  3650,6872.093000000003,94.492,495.228,492.689,0.0
50178.0,STARLINK-3284,PAYLOAD,2022-03-13 06:00:00,15.23477092,0.0001434,53.2172,312.4191,56.3818,57.6517,-0.029341,-0.00657643,0.0,0 STARLINK-3284,1 50178U 21125Y   22072.25001157 -.00657643  00000-0 -29341-1 0  9999,2 50178  53.2172 312.4191 0001434  56.3818  57.6517 15.23477092 16083,6873.499,94.521,496.35,494.379,0.0
50178.0,STARLINK-3284,PAYLOAD,2022-03-13 14:00:01,15.23011461,0.000162,53.2174,310.8854,48.0143,94.9203,-0.02987,-0.00660094,0.0,0 STARLINK-3284,1 50178U 21125Y   22072.58334491 -.00660094  00000-0 -29870-1 0  9996,2 50178  53.2174 310.8854 0001620  48.0143  94.9203 15.23011461  3670,6874.9,94.55,497.879,495.651,0.0
50178.0,STARLINK-3284,PAYLOAD,2022-03-13 22:00:01,15.22543505,0.0001886,53.2174,309.3559,41.7157,129.6219,-0.030169,-0.00657696,0.0,0 STARLINK-3284,1 50178U 21125Y   22072.91668981 -.00657696  00000-0 -30169-1 0  9994,2 50178  53.2174 309.3559 0001886  41.7157 129.6219 15.22543505  3653,6876.309,94.579,499.471,496.877,0.0
50178.0,STARLINK-3284,PAYLOAD,2022-03-14 14:00:01,15.2161161,0.0001598,53.2173,306.295,53.9389,172.3969,-0.031118,-0.00659712,0.0,0 STARLINK-3284,1 50178U 21125Y   22073.58335648 -.00659712  00000-0 -31118-1 0  9995,2 50178  53.2173 306.2950 0001598  53.9389 172.3969 15.21611610 16287,6879.116,94.637,502.08,499.882,0.0
50178.0,STARLINK-3284,PAYLOAD,2022-03-14 20:00:01,15.21260004,0.0001813,53.2175,305.1505,43.5737,112.7446,-0.031296,-0.00656875,0.0,0 STARLINK-3284,1 50178U 21125Y   22073.83334491 -.00656875  00000-0 -31296-1 0  9992,2 50178  53.2175 305.1505 0001813  43.5737 112.7446 15.21260004  3624,6880.176,94.658,503.288,500.794,0.0
50178.0,STARLINK-3284,PAYLOAD,2022-03-15 02:00:01,15.20908134,0.0001757,53.2174,304.0059,39.1299,46.9192,-0.031445,-0.00653448,0.0,0 STARLINK-3284,1 50178U 21125Y   22074.08334491 -.00653448  00000-0 -31445-1 0  9999,2 50178  53.2174 304.0059 0001757  39.1299  46.9192 15.20908134  3624,6881.236999999999,94.68,504.311,501.893,0.0
50178.0,STARLINK-3284,PAYLOAD,2022-03-15 22:00:00,15.19744991,0.0001571,53.2175,300.192,49.4848,280.0545,-0.032828,-0.00666033,0.0,0 STARLINK-3284,1 50178U 21125Y   22074.91667824 -.00666033  00000-0 -32828-1 0  9990,2 50178  53.2175 300.1920 0001571  49.4848 280.0545 15.19744991 16485,6884.748000000001,94.753,507.694,505.531,0.0
50178.0,STARLINK-3284,PAYLOAD,2022-03-16 14:00:01,15.18809786,0.0001482,53.2176,297.1443,50.6681,327.1431,-0.033524,-0.00662116,0.0,0 STARLINK-3284,1 50178U 21125Y   22075.58334491 -.00662116  00000-0 -33524-1 0  9997,2 50178  53.2176 297.1443 0001482  50.6681 327.1431 15.18809786  3634,6887.574000000001,94.811,510.459,508.418,0.0
50178.0,STARLINK-3284,PAYLOAD,2022-03-16 20:00:01,15.18460747,0.0001563,53.2174,296.0047,50.3695,254.9637,-0.033947,-0.00663619,0.0,0 STARLINK-3284,1 50178U 21125Y   22075.83334491 -.00663619  00000-0 -33947-1 0  9993,2 50178  53.2174 296.0047 0001563  50.3695 254.9637 15.18460747  3637,6888.629,94.833,511.571,509.417,0.0
50178.0,STARLINK-3284,PAYLOAD,2022-03-17 06:00:00,15.17878653,0.0001324,53.2174,294.1037,62.881,0.9567,-0.034654,-0.00665939,0.0,0 STARLINK-3284,1 50178U 21125Y   22076.25001157 -.00665939  00000-0 -34654-1 0  9993,2 50178  53.2174 294.1037 0001324  62.8810   0.9567 15.17878653 16696,6890.39,94.869,513.1669999999998,511.343,0.0
50178.0,STARLINK-3284,PAYLOAD,2022-03-17 14:00:01,15.17410866,0.0001559,53.2175,292.5836,49.6267,36.3846,-0.034967,-0.00663147,0.0,0 STARLINK-3284,1 50178U 21125Y   22076.58334491 -.00663147  00000-0 -34967-1 0  9995,2 50178  53.2175 292.5836 0001559  49.6267  36.3846 15.17410866  3647,6891.806,94.898,514.746,512.597,0.0
50178.0,STARLINK-3284,PAYLOAD,2022-03-17 22:00:00,15.16946703,0.0001676999999999,53.2175,291.0675,47.2481,60.3736,-0.035715,-0.00668027,0.0,0 STARLINK-3284,1 50178U 21125Y   22076.91667824 -.00668027  00000-0 -35715-1 0  9995,2 50178  53.2175 291.0675 0001677  47.2481  60.3736 15.16946703  3643,6893.212,94.928,516.2330000000002,513.9209999999998,0.0
50178.0,STARLINK-3284,PAYLOAD,2022-03-18 08:00:01,15.16341047,0.0001551999999999,53.2165,289.171,54.9028,168.9558,-0.034364,-0.00627266,0.0,0 STARLINK-3284,1 50178U 21125Y   22077.33334491 -.00627266  00000-0 -34364-1 0  9992,2 50178  53.2165 289.1710 0001552  54.9028 168.9558 15.16341047 16858,6895.047,94.965,517.982,515.842,0.0
50178.0,STARLINK-3284,PAYLOAD,2022-03-18 14:00:01,15.16012059,0.0001606,53.2176,288.0327,53.3623,95.8033,-0.036475,-0.00664426,0.0,0 STARLINK-3284,1 50178U 21125Y   22077.58334491 -.00664426  00000-0 -36475-1 0  9993,2 50178  53.2176 288.0327 0001606  53.3623  95.8033 15.16012059  3654,6896.045,94.986,519.0169999999998,516.802,0.0
50178.0,STARLINK-3284,PAYLOAD,2022-03-18 22:00:00,15.1554548,0.0001719,53.2175,286.5197,51.3331,117.762,-0.037014,-0.00665271,0.0,0 STARLINK-3284,1 50178U 21125Y   22077.91667824 -.00665271  00000-0 -37014-1 0  9998,2 50178  53.2175 286.5197 0001719  51.3331 117.7620 15.15545480 16940,6897.46,95.015,520.511,518.139,0.0
50178.0,STARLINK-3284,PAYLOAD,2022-03-19 14:00:01,15.14612389,0.0001611,53.2176,283.4917,57.8685,149.406,-0.037955,-0.00664356,0.0,0 STARLINK-3284,1 50178U 21125Y   22078.58334491 -.00664356  00000-0 -37955-1 0  9990,2 50178  53.2176 283.4917 0001611  57.8685 149.4060 15.14612389  3635,6900.293000000002,95.074,523.269,521.0459999999998,0.0
